CCSDS_OMM_VERS = 2.0
CREATION_DATE  = 
ORIGINATOR     = 

OBJECT_NAME    = STARLINK-36619
OBJECT_ID      = 2026-020AE
CENTER_NAME    = EARTH
REF_FRAME      = TEME
TIME_SYSTEM    = UTC
MEAN_ELEMENT_THEORY = SGP/SGP4

EPOCH          = 2026-02-17T22:42:22.535424
MEAN_MOTION    = 15.76428665
ECCENTRICITY   = .00018685
INCLINATION    = 42.9970
RA_OF_ASC_NODE = 261.8386
ARG_OF_PERICENTER = 293.4272
MEAN_ANOMALY   = 66.6401

EPHEMERIS_TYPE = 0
CLASSIFICATION_TYPE = U
NORAD_CAT_ID   = 67645
ELEMENT_SET_NO = 999
REV_AT_EPOCH   = 297
BSTAR          = .15013643E-2
MEAN_MOTION_DOT = .252101E-2
MEAN_MOTION_DDOT = 0

CCSDS_OMM_VERS = 2.0
CREATION_DATE  = 
ORIGINATOR     = 

OBJECT_NAME    = ALSAT-3B
OBJECT_ID      = 2026-021A
CENTER_NAME    = EARTH
REF_FRAME      = TEME
TIME_SYSTEM    = UTC
MEAN_ELEMENT_THEORY = SGP/SGP4

EPOCH          = 2026-02-17T22:40:48.948672
MEAN_MOTION    = 15.23640247
ECCENTRICITY   = .00122844
INCLINATION    = 97.4709
RA_OF_ASC_NODE = 123.3671
ARG_OF_PERICENTER = 198.6765
MEAN_ANOMALY   = 161.4023

EPHEMERIS_TYPE = 0
CLASSIFICATION_TYPE = U
NORAD_CAT_ID   = 67646
ELEMENT_SET_NO = 999
REV_AT_EPOCH   = 271
BSTAR          = .29166101E-3
MEAN_MOTION_DOT = .6932E-4
MEAN_MOTION_DDOT = 0

CCSDS_OMM_VERS = 2.0
CREATION_DATE  = 
ORIGINATOR     = 

OBJECT_NAME    = CZ-2C R/B
OBJECT_ID      = 2026-021B
CENTER_NAME    = EARTH
REF_FRAME      = TEME
TIME_SYSTEM    = UTC
MEAN_ELEMENT_THEORY = SGP/SGP4

EPOCH          = 2026-02-17T22:45:23.660064
MEAN_MOTION    = 15.23544157
ECCENTRICITY   = .01533758
INCLINATION    = 97.6550
RA_OF_ASC_NODE = 124.0200
ARG_OF_PERICENTER = 79.8762
MEAN_ANOMALY   = 281.9736

EPHEMERIS_TYPE = 0
CLASSIFICATION_TYPE = U
NORAD_CAT_ID   = 67647
ELEMENT_SET_NO = 999
REV_AT_EPOCH   = 269
BSTAR          = .38284372E-3
MEAN_MOTION_DOT = .12689E-3
MEAN_MOTION_DDOT = 0

CCSDS_OMM_VERS = 2.0
CREATION_DATE  = 
ORIGINATOR     = 

OBJECT_NAME    = STARLINK-36719
OBJECT_ID      = 2026-022A
CENTER_NAME    = EARTH
REF_FRAME      = TEME
TIME_SYSTEM    = UTC
MEAN_ELEMENT_THEORY = SGP/SGP4

EPOCH          = 2026-02-17T22:00:01.999584
MEAN_MOTION    = 15.75215526
ECCENTRICITY   = .0001358
INCLINATION    = 97.2834
RA_OF_ASC_NODE = 81.9072
ARG_OF_PERICENTER = 89.3452
MEAN_ANOMALY   = 333.6398

EPHEMERIS_TYPE = 0
CLASSIFICATION_TYPE = U
NORAD_CAT_ID   = 67648
ELEMENT_SET_NO = 999
REV_AT_EPOCH   = 371
BSTAR          = -.4567993E-3
MEAN_MOTION_DOT = -.67801E-3
MEAN_MOTION_DDOT = 0

CCSDS_OMM_VERS = 2.0
CREATION_DATE  = 
ORIGINATOR     = 

OBJECT_NAME    = STARLINK-36342
OBJECT_ID      = 2026-022B
CENTER_NAME    = EARTH
REF_FRAME      = TEME
TIME_SYSTEM    = UTC
MEAN_ELEMENT_THEORY = SGP/SGP4

EPOCH          = 2026-02-17T22:00:01.999584
MEAN_MOTION    = 15.75185054
ECCENTRICITY   = .00013175
INCLINATION    = 97.2850
RA_OF_ASC_NODE = 81.9080
ARG_OF_PERICENTER = 91.5494
MEAN_ANOMALY   = 335.4255

EPHEMERIS_TYPE = 0
CLASSIFICATION_TYPE = U
NORAD_CAT_ID   = 67649
ELEMENT_SET_NO = 999
REV_AT_EPOCH   = 371
BSTAR          = .14468761E-3
MEAN_MOTION_DOT = .21501E-3
MEAN_MOTION_DDOT = 0

CCSDS_OMM_VERS = 2.0
CREATION_DATE  = 
ORIGINATOR     = 

OBJECT_NAME    = STARLINK-36703
OBJECT_ID      = 2026-022C
CENTER_NAME    = EARTH
REF_FRAME      = TEME
TIME_SYSTEM    = UTC
MEAN_ELEMENT_THEORY = SGP/SGP4

EPOCH          = 2026-02-17T22:00:01.999584
MEAN_MOTION    = 15.75158998
ECCENTRICITY   = .00014487
INCLINATION    = 97.2850
RA_OF_ASC_NODE = 81.9106
ARG_OF_PERICENTER = 105.2476
MEAN_ANOMALY   = 327.7437

EPHEMERIS_TYPE = 0
CLASSIFICATION_TYPE = U
NORAD_CAT_ID   = 67650
ELEMENT_SET_NO = 999
REV_AT_EPOCH   = 371
BSTAR          = .28841894E-3
MEAN_MOTION_DOT = .43049E-3
MEAN_MOTION_DDOT = 0

CCSDS_OMM_VERS = 2.0
CREATION_DATE  = 
ORIGINATOR     = 

OBJECT_NAME    = STARLINK-36696
OBJECT_ID      = 2026-022D
CENTER_NAME    = EARTH
REF_FRAME      = TEME
TIME_SYSTEM    = UTC
MEAN_ELEMENT_THEORY = SGP/SGP4

EPOCH          = 2026-02-17T22:00:01.999584
MEAN_MOTION    = 15.75231423
ECCENTRICITY   = .00014308
INCLINATION    = 97.2837
RA_OF_ASC_NODE = 81.9151
ARG_OF_PERICENTER = 70.2707
MEAN_ANOMALY   = 12.6994

EPHEMERIS_TYPE = 0
CLASSIFICATION_TYPE = U
NORAD_CAT_ID   = 67651
ELEMENT_SET_NO = 999
REV_AT_EPOCH   = 371
BSTAR          = -.52819509E-3
MEAN_MOTION_DOT = -.78336E-3
MEAN_MOTION_DDOT = 0

CCSDS_OMM_VERS = 2.0
CREATION_DATE  = 
ORIGINATOR     = 

OBJECT_NAME    = STARLINK-36699
OBJECT_ID      = 2026-022E
CENTER_NAME    = EARTH
REF_FRAME      = TEME
TIME_SYSTEM    = UTC
MEAN_ELEMENT_THEORY = SGP/SGP4

EPOCH          = 2026-02-17T22:00:01.999584
MEAN_MOTION    = 15.75220798
ECCENTRICITY   = .00013383
INCLINATION    = 97.2836
RA_OF_ASC_NODE = 81.9167
ARG_OF_PERICENTER = 96.8352
MEAN_ANOMALY   = 350.1390

EPHEMERIS_TYPE = 0
CLASSIFICATION_TYPE = U
NORAD_CAT_ID   = 67652
ELEMENT_SET_NO = 999
REV_AT_EPOCH   = 371
BSTAR          = -.48537722E-3
MEAN_MOTION_DOT = -.72016E-3
MEAN_MOTION_DDOT = 0

CCSDS_OMM_VERS = 2.0
CREATION_DATE  = 
ORIGINATOR     = 

OBJECT_NAME    = STARLINK-36694
OBJECT_ID      = 2026-022F
CENTER_NAME    = EARTH
REF_FRAME      = TEME
TIME_SYSTEM    = UTC
MEAN_ELEMENT_THEORY = SGP/SGP4

EPOCH          = 2026-02-17T22:00:01.999584
MEAN_MOTION    = 15.75223652
ECCENTRICITY   = .00010798
INCLINATION    = 97.2837
RA_OF_ASC_NODE = 81.9217
ARG_OF_PERICENTER = 87.2019
MEAN_ANOMALY   = 11.7706

EPHEMERIS_TYPE = 0
CLASSIFICATION_TYPE = U
NORAD_CAT_ID   = 67653
ELEMENT_SET_NO = 999
REV_AT_EPOCH   = 371
BSTAR          = -.50776357E-3
MEAN_MOTION_DOT = -.75309E-3
MEAN_MOTION_DDOT = 0

CCSDS_OMM_VERS = 2.0
CREATION_DATE  = 
ORIGINATOR     = 

OBJECT_NAME    = STARLINK-36620
OBJECT_ID      = 2026-022G
CENTER_NAME    = EARTH
REF_FRAME      = TEME
TIME_SYSTEM    = UTC
MEAN_ELEMENT_THEORY = SGP/SGP4

EPOCH          = 2026-02-17T22:00:01.999584
MEAN_MOTION    = 15.75225316
ECCENTRICITY   = .00009907
INCLINATION    = 97.2840
RA_OF_ASC_NODE = 81.9221
ARG_OF_PERICENTER = 79.2575
MEAN_ANOMALY   = 21.7150

EPHEMERIS_TYPE = 0
CLASSIFICATION_TYPE = U
NORAD_CAT_ID   = 67654
ELEMENT_SET_NO = 999
REV_AT_EPOCH   = 371
BSTAR          = -.51180844E-3
MEAN_MOTION_DOT = -.75908E-3
MEAN_MOTION_DDOT = 0

CCSDS_OMM_VERS = 2.0
CREATION_DATE  = 
ORIGINATOR     = 

OBJECT_NAME    = STARLINK-36720
OBJECT_ID      = 2026-022H
CENTER_NAME    = EARTH
REF_FRAME      = TEME
TIME_SYSTEM    = UTC
MEAN_ELEMENT_THEORY = SGP/SGP4

EPOCH          = 2026-02-17T22:00:01.999584
MEAN_MOTION    = 15.75207489
ECCENTRICITY   = .00014041
INCLINATION    = 97.2839
RA_OF_ASC_NODE = 81.9265
ARG_OF_PERICENTER = 101.4935
MEAN_ANOMALY   = 9.4871

EPHEMERIS_TYPE = 0
CLASSIFICATION_TYPE = U
NORAD_CAT_ID   = 67655
ELEMENT_SET_NO = 999
REV_AT_EPOCH   = 371
BSTAR          = -.37217767E-3
MEAN_MOTION_DOT = -.55326E-3
MEAN_MOTION_DDOT = 0

CCSDS_OMM_VERS = 2.0
CREATION_DATE  = 
ORIGINATOR     = 

OBJECT_NAME    = STARLINK-36688
OBJECT_ID      = 2026-022J
CENTER_NAME    = EARTH
REF_FRAME      = TEME
TIME_SYSTEM    = UTC
MEAN_ELEMENT_THEORY = SGP/SGP4

EPOCH          = 2026-02-17T22:00:01.999584
MEAN_MOTION    = 15.75359709
ECCENTRICITY   = .00014923
INCLINATION    = 97.2840
RA_OF_ASC_NODE = 81.9275
ARG_OF_PERICENTER = 101.4004
MEAN_ANOMALY   = 13.5895

EPHEMERIS_TYPE = 0
CLASSIFICATION_TYPE = U
NORAD_CAT_ID   = 67656
ELEMENT_SET_NO = 999
REV_AT_EPOCH   = 371
BSTAR          = -.1561275E-2
MEAN_MOTION_DOT = -.228573E-2
MEAN_MOTION_DDOT = 0

