STARLINK-36619          
1 67645U 26020AE  26048.94609416  .00252101  00000+0  15014-2 0  9990
2 67645  42.9970 261.8386 0001868 293.4272  66.6401 15.76428665  2978
ALSAT-3B                
1 67646U 26021A   26048.94501098  .00006932  00000+0  29166-3 0  9992
2 67646  97.4709 123.3671 0012284 198.6765 161.4023 15.23640247  2710
CZ-2C R/B               
1 67647U 26021B   26048.94819051  .00012689  00000+0  38284-3 0  9991
2 67647  97.6550 124.0200 0153375  79.8762 281.9736 15.23544157  2696
STARLINK-36719          
1 67648U 26022A   26048.91668981 -.00067801  00000+0 -45680-3 0  9990
2 67648  97.2834  81.9072 0001358  89.3452 333.6398 15.75215526  3716
STARLINK-36342          
1 67649U 26022B   26048.91668981  .00021501  00000+0  14469-3 0  9997
2 67649  97.2850  81.9080 0001317  91.5494 335.4255 15.75185054  3714
STARLINK-36703          
1 67650U 26022C   26048.91668981  .00043049  00000+0  28842-3 0  9990
2 67650  97.2850  81.9106 0001448 105.2476 327.7437 15.75158998  3716
STARLINK-36696          
1 67651U 26022D   26048.91668981 -.00078336  00000+0 -52820-3 0  9993
2 67651  97.2837  81.9151 0001430  70.2707  12.6994 15.75231423  3714
STARLINK-36699          
1 67652U 26022E   26048.91668981 -.00072016  00000+0 -48538-3 0  9994
2 67652  97.2836  81.9167 0001338  96.8352 350.1390 15.75220798  3711
STARLINK-36694          
1 67653U 26022F   26048.91668981 -.00075309  00000+0 -50776-3 0  9990
2 67653  97.2837  81.9217 0001079  87.2019  11.7706 15.75223652  3718
STARLINK-36620          
1 67654U 26022G   26048.91668981 -.00075908  00000+0 -51181-3 0  9997
2 67654  97.2840  81.9221 0000990  79.2575  21.7150 15.75225316  3710
STARLINK-36720          
1 67655U 26022H   26048.91668981 -.00055326  00000+0 -37218-3 0  9995
2 67655  97.2839  81.9265 0001404 101.4935   9.4871 15.75207489  3710
STARLINK-36688          
1 67656U 26022J   26048.91668981 -.00228573  00000+0 -15613-2 0  9996
2 67656  97.2840  81.9275 0001492 101.4004  13.5895 15.75359709  3713
